start=new Date('2022-10-24T00:00:00.000Z').valueOf();
sats=[{"BSTAR":"0.00185840000000","SITE":"AFETR","SEMIMAJOR_AXIS":"6877.772","PERIAPSIS":"496.752","LAUNCH_DATE":"2020-01-29","CENTER_NAME":"EARTH","MEAN_ELEMENT_THEORY":"SGP4","PERIOD":"94.609","ELEMENT_SET_NO":"999","DECAY_DATE":null,"MEAN_ANOMALY":"330.1421","TLE_LINE1":"1 45086U 20006AU  22296.50464237  .00042980  00000-0  18584-2 0  9994","MEAN_MOTION_DOT":"0.00042980","REF_FRAME":"TEME","EPOCH":"2022-10-23T12:06:41.100768","INCLINATION":"52.9922","MEAN_MOTION_DDOT":"0.0000000000000","COUNTRY_CODE":"US","RCS_SIZE":"LARGE","REV_AT_EPOCH":"15132","FILE":"3630365","OBJECT_NAME":"STARLINK-1181","EPHEMERIS_TYPE":"0","MEAN_MOTION":"15.22057485","OBJECT_ID":"2020-006AU","TIME_SYSTEM":"UTC","ECCENTRICITY":"0.00041950","GP_ID":"215961005","NORAD_CAT_ID":"45086","ARG_OF_PERICENTER":"29.9814","RA_OF_ASC_NODE":"1.4603","APOAPSIS":"502.523","TLE_LINE2":"2 45086  52.9922   1.4603 0004195  29.9814 330.1421 15.22057485151325","OBJECT_TYPE":"PAYLOAD","CLASSIFICATION_TYPE":"U"},{"GP_ID":"215992765","ECCENTRICITY":"0.00017370","TIME_SYSTEM":"UTC","APOAPSIS":"548.384","TLE_LINE2":"2 45087  53.0572  21.4873 0001737  57.0859 303.0297 15.06410678151194","OBJECT_TYPE":"PAYLOAD","CLASSIFICATION_TYPE":"U","NORAD_CAT_ID":"45087","RA_OF_ASC_NODE":"21.4873","ARG_OF_PERICENTER":"57.0859","REV_AT_EPOCH":"15119","RCS_SIZE":"LARGE","FILE":"3630604","COUNTRY_CODE":"US","EPHEMERIS_TYPE":"0","MEAN_MOTION":"15.06410678","OBJECT_ID":"2020-006AV","OBJECT_NAME":"STARLINK-1185","DECAY_DATE":null,"MEAN_ANOMALY":"303.0297","MEAN_MOTION_DOT":"0.00002189","TLE_LINE1":"1 45087U 20006AV  22296.75270950  .00002189  00000-0  16577-3 0  9997","REF_FRAME":"TEME","PERIOD":"95.591","ELEMENT_SET_NO":"999","MEAN_MOTION_DDOT":"0.0000000000000","EPOCH":"2022-10-23T18:03:54.100800","INCLINATION":"53.0572","SITE":"AFETR","SEMIMAJOR_AXIS":"6925.316","PERIAPSIS":"545.978","LAUNCH_DATE":"2020-01-29","BSTAR":"0.00016577000000","CENTER_NAME":"EARTH","MEAN_ELEMENT_THEORY":"SGP4"},{"MEAN_MOTION_DOT":"0.00004684","TLE_LINE1":"1 45088U 20006AW  22296.64213714  .00004684  00000-0  33305-3 0  9991","DECAY_DATE":null,"MEAN_ANOMALY":"307.6502","REF_FRAME":"TEME","ELEMENT_SET_NO":"999","PERIOD":"95.591","MEAN_MOTION_DDOT":"0.0000000000000","EPOCH":"2022-10-23T15:24:40.648896","INCLINATION":"53.0561","SITE":"AFETR","SEMIMAJOR_AXIS":"6925.306","LAUNCH_DATE":"2020-01-29","PERIAPSIS":"545.967","BSTAR":"0.00033305000000","CENTER_NAME":"EARTH","MEAN_ELEMENT_THEORY":"SGP4","GP_ID":"215992516","ECCENTRICITY":"0.00017390","TIME_SYSTEM":"UTC","APOAPSIS":"548.375","TLE_LINE2":"2 45088  53.0561  21.9753 0001739  52.4645 307.6502 15.06413925151174","OBJECT_TYPE":"PAYLOAD","CLASSIFICATION_TYPE":"U","RA_OF_ASC_NODE":"21.9753","ARG_OF_PERICENTER":"52.4645","NORAD_CAT_ID":"45088","FILE":"3630604","REV_AT_EPOCH":"15117","RCS_SIZE":"LARGE","COUNTRY_CODE":"US","EPHEMERIS_TYPE":"0","OBJECT_ID":"2020-006AW","MEAN_MOTION":"15.06413925","OBJECT_NAME":"STARLINK-1183"},{"BSTAR":"0.00016894000000","SITE":"AFETR","SEMIMAJOR_AXIS":"6925.325","LAUNCH_DATE":"2020-01-29","PERIAPSIS":"546.047","CENTER_NAME":"EARTH","MEAN_ELEMENT_THEORY":"SGP4","ELEMENT_SET_NO":"999","PERIOD":"95.592","TLE_LINE1":"1 45089U 20006AX  22296.84856245  .00002236  00000-0  16894-3 0  9991","MEAN_MOTION_DOT":"0.00002236","DECAY_DATE":null,"MEAN_ANOMALY":"295.0824","REF_FRAME":"TEME","EPOCH":"2022-10-23T20:21:55.795680","INCLINATION":"53.0557","MEAN_MOTION_DDOT":"0.0000000000000","COUNTRY_CODE":"US","FILE":"3630604","REV_AT_EPOCH":"15121","RCS_SIZE":"LARGE","OBJECT_NAME":"STARLINK-1136","EPHEMERIS_TYPE":"0","OBJECT_ID":"2020-006AX","MEAN_MOTION":"15.06407789","TIME_SYSTEM":"UTC","ECCENTRICITY":"0.00016500","GP_ID":"215991266","ARG_OF_PERICENTER":"65.0336","RA_OF_ASC_NODE":"21.1480","NORAD_CAT_ID":"45089","APOAPSIS":"548.332","TLE_LINE2":"2 45089  53.0557  21.1480 0001650  65.0336 295.0824 15.06407789151211","CLASSIFICATION_TYPE":"U","OBJECT_TYPE":"PAYLOAD"},{"COUNTRY_CODE":"US","RCS_SIZE":"LARGE","REV_AT_EPOCH":"15116","FILE":"3630604","OBJECT_NAME":"STARLINK-1176","EPHEMERIS_TYPE":"0","MEAN_MOTION":"15.06402114","OBJECT_ID":"2020-006AY","TIME_SYSTEM":"UTC","ECCENTRICITY":"0.00014790","GP_ID":"215991516","NORAD_CAT_ID":"45090","RA_OF_ASC_NODE":"22.3527","ARG_OF_PERICENTER":"64.5439","APOAPSIS":"548.231","CLASSIFICATION_TYPE":"U","TLE_LINE2":"2 45090  53.0548  22.3527 0001479  64.5439 295.5703 15.06402114151167","OBJECT_TYPE":"PAYLOAD","BSTAR":"0.00008718800000","SEMIMAJOR_AXIS":"6925.342","SITE":"AFETR","PERIAPSIS":"546.183","LAUNCH_DATE":"2020-01-29","CENTER_NAME":"EARTH","MEAN_ELEMENT_THEORY":"SGP4","PERIOD":"95.592","ELEMENT_SET_NO":"999","DECAY_DATE":null,"MEAN_ANOMALY":"295.5703","MEAN_MOTION_DOT":"0.00001017","TLE_LINE1":"1 45090U 20006AY  22296.56009723  .00001017  00000-0  87188-4 0  9994","REF_FRAME":"TEME","EPOCH":"2022-10-23T13:26:32.400672","INCLINATION":"53.0548","MEAN_MOTION_DDOT":"0.0000000000000"},{"COUNTRY_CODE":"US","RCS_SIZE":"LARGE","REV_AT_EPOCH":"15117","FILE":"3630604","OBJECT_NAME":"STARLINK-1137","EPHEMERIS_TYPE":"0","MEAN_MOTION":"15.06400600","OBJECT_ID":"2020-006BA","ECCENTRICITY":"0.00015550","TIME_SYSTEM":"UTC","GP_ID":"215992266","NORAD_CAT_ID":"45092","ARG_OF_PERICENTER":"59.5260","RA_OF_ASC_NODE":"21.8767","APOAPSIS":"548.289","CLASSIFICATION_TYPE":"U","TLE_LINE2":"2 45092  53.0555  21.8767 0001555  59.5260 300.5883 15.06400600151173","OBJECT_TYPE":"PAYLOAD","BSTAR":"0.00003014000000","SEMIMAJOR_AXIS":"6925.347","SITE":"AFETR","PERIAPSIS":"546.135","LAUNCH_DATE":"2020-01-29","CENTER_NAME":"EARTH","MEAN_ELEMENT_THEORY":"SGP4","PERIOD":"95.592","ELEMENT_SET_NO":"999","MEAN_ANOMALY":"300.5883","DECAY_DATE":null,"MEAN_MOTION_DOT":"0.00000167","TLE_LINE1":"1 45092U 20006BA  22296.66794011  .00000167  00000-0  30140-4 0  9999","REF_FRAME":"TEME","EPOCH":"2022-10-23T16:01:50.025504","INCLINATION":"53.0555","MEAN_MOTION_DDOT":"0.0000000000000"},{"RA_OF_ASC_NODE":"21.8884","ARG_OF_PERICENTER":"67.5264","NORAD_CAT_ID":"45093","CLASSIFICATION_TYPE":"U","TLE_LINE2":"2 45093  53.0555  21.8884 0001391  67.5264 292.5873 15.06402835151176","OBJECT_TYPE":"PAYLOAD","APOAPSIS":"548.168","TIME_SYSTEM":"UTC","ECCENTRICITY":"0.00013910","GP_ID":"215993017","OBJECT_NAME":"STARLINK-1142","OBJECT_ID":"2020-006BB","MEAN_MOTION":"15.06402835","EPHEMERIS_TYPE":"0","COUNTRY_CODE":"US","FILE":"3630604","REV_AT_EPOCH":"15117","RCS_SIZE":"LARGE","INCLINATION":"53.0555","EPOCH":"2022-10-23T15:56:31.549920","MEAN_MOTION_DDOT":"0.0000000000000","ELEMENT_SET_NO":"999","PERIOD":"95.592","REF_FRAME":"TEME","TLE_LINE1":"1 45093U 20006BB  22296.66425405 -.00000638  00000-0 -23958-4 0  9992","MEAN_MOTION_DOT":"-0.00000638","DECAY_DATE":null,"MEAN_ANOMALY":"292.5873","MEAN_ELEMENT_THEORY":"SGP4","CENTER_NAME":"EARTH","BSTAR":"-0.00002395800000","LAUNCH_DATE":"2020-01-29","PERIAPSIS":"546.242","SITE":"AFETR","SEMIMAJOR_AXIS":"6925.340"},{"BSTAR":"0.00018662000000","SITE":"AFETR","SEMIMAJOR_AXIS":"6925.293","PERIAPSIS":"546.261","LAUNCH_DATE":"2020-01-29","CENTER_NAME":"EARTH","MEAN_ELEMENT_THEORY":"SGP4","PERIOD":"95.591","ELEMENT_SET_NO":"999","DECAY_DATE":null,"MEAN_ANOMALY":"304.9188","MEAN_MOTION_DOT":"0.00002501","TLE_LINE1":"1 45094U 20006BC  22296.61169605  .00002501  00000-0  18662-3 0  9999","REF_FRAME":"TEME","EPOCH":"2022-10-23T14:40:50.538720","INCLINATION":"53.0567","MEAN_MOTION_DDOT":"0.0000000000000","COUNTRY_CODE":"US","REV_AT_EPOCH":"15117","RCS_SIZE":"LARGE","FILE":"3630604","OBJECT_NAME":"STARLINK-1146","EPHEMERIS_TYPE":"0","MEAN_MOTION":"15.06418126","OBJECT_ID":"2020-006BC","TIME_SYSTEM":"UTC","ECCENTRICITY":"0.00012950","GP_ID":"215991767","NORAD_CAT_ID":"45094","ARG_OF_PERICENTER":"55.1923","RA_OF_ASC_NODE":"22.1114","APOAPSIS":"548.055","CLASSIFICATION_TYPE":"U","TLE_LINE2":"2 45094  53.0567  22.1114 0001295  55.1923 304.9188 15.06418126151175","OBJECT_TYPE":"PAYLOAD"},{"ECCENTRICITY":"0.00018060","TIME_SYSTEM":"UTC","GP_ID":"215992017","ARG_OF_PERICENTER":"48.8577","RA_OF_ASC_NODE":"22.0856","NORAD_CAT_ID":"45095","APOAPSIS":"548.438","TLE_LINE2":"2 45095  53.0568  22.0856 0001806  48.8577 311.2568 15.06408658151173","OBJECT_TYPE":"PAYLOAD","CLASSIFICATION_TYPE":"U","COUNTRY_CODE":"US","FILE":"3630604","REV_AT_EPOCH":"15117","RCS_SIZE":"LARGE","OBJECT_NAME":"STARLINK-1147","EPHEMERIS_TYPE":"0","OBJECT_ID":"2020-006BD","MEAN_MOTION":"15.06408658","ELEMENT_SET_NO":"999","PERIOD":"95.592","MEAN_MOTION_DOT":"0.00006132","TLE_LINE1":"1 45095U 20006BD  22296.61539123  .00006132  00000-0  43010-3 0  9995","DECAY_DATE":null,"MEAN_ANOMALY":"311.2568","REF_FRAME":"TEME","EPOCH":"2022-10-23T14:46:09.802272","INCLINATION":"53.0568","MEAN_MOTION_DDOT":"0.0000000000000","BSTAR":"0.00043010000000","SITE":"AFETR","SEMIMAJOR_AXIS":"6925.322","LAUNCH_DATE":"2020-01-29","PERIAPSIS":"545.936","CENTER_NAME":"EARTH","MEAN_ELEMENT_THEORY":"SGP4"},{"OBJECT_TYPE":"PAYLOAD","TLE_LINE2":"2 45096  53.0563  21.8281 0001753  54.8170 305.2983 15.06413724151179","CLASSIFICATION_TYPE":"U","APOAPSIS":"548.386","NORAD_CAT_ID":"45096","ARG_OF_PERICENTER":"54.8170","RA_OF_ASC_NODE":"21.8281","GP_ID":"215992766","TIME_SYSTEM":"UTC","ECCENTRICITY":"0.00017530","MEAN_MOTION":"15.06413724","OBJECT_ID":"2020-006BE","EPHEMERIS_TYPE":"0","OBJECT_NAME":"STARLINK-1152","REV_AT_EPOCH":"15117","RCS_SIZE":"LARGE","FILE":"3630604","COUNTRY_CODE":"US","MEAN_MOTION_DDOT":"0.0000000000000","INCLINATION":"53.0563","EPOCH":"2022-10-23T16:12:26.445312","REF_FRAME":"TEME","DECAY_DATE":null,"MEAN_ANOMALY":"305.2983","MEAN_MOTION_DOT":"0.00002057","TLE_LINE1":"1 45096U 20006BE  22296.67530608  .00002057  00000-0  15687-3 0  9992","PERIOD":"95.591","ELEMENT_SET_NO":"999","MEAN_ELEMENT_THEORY":"SGP4","CENTER_NAME":"EARTH","PERIAPSIS":"545.957","LAUNCH_DATE":"2020-01-29","SITE":"AFETR","SEMIMAJOR_AXIS":"6925.306","BSTAR":"0.00015687000000"}];
